TOMORROW-S1             
1 60479U 24149M   26159.19187483  .00006498  00000+0  20898-3 0  9996
2 60479  97.3744 239.6936 0000995 279.9267  80.1863 15.32591542100717
FLOCK 4BE-18            
1 60480U 24149N   26159.18886913  .00014514  00000+0  34726-3 0  9994
2 60480  97.3725 242.8268 0002368 282.9577  77.1406 15.41565842100922
FLOCK 4BE-7             
1 60481U 24149P   26159.18715248  .00018060  00000+0  45496-3 0  9993
2 60481  97.3752 242.1821 0001510 289.3249  70.7833 15.39951792100862
TOMORROW-S2             
1 60485U 24149T   26159.22255909  .00007123  00000+0  22861-3 0  9994
2 60485  97.3813 240.2044 0001514 329.9872  30.1283 15.32619190100716
FLOCK 4BE-36            
1 60486U 24149U   26159.48979677  .00014311  00000+0  33248-3 0  9996
2 60486  97.3739 243.8159 0002172 303.7990  56.3051 15.42455990101016
FLOCK 4BE-25            
1 60487U 24149V   26159.17853487  .00012002  00000+0  31690-3 0  9997
2 60487  97.3794 242.2699 0000715 292.7160  67.4010 15.38604408100851
FLOCK 4BE-31            
1 60488U 24149W   26159.20417310  .00017916  00000+0  39804-3 0  9997
2 60488  97.3797 244.3600 0001171 311.7537  48.3611 15.43744550100996
FLOCK 4BE-20            
1 60489U 24149X   26159.52783282  .00013599  00000+0  36769-3 0  9997
2 60489  97.3692 241.5223 0002214 299.9607  60.1418 15.37836802100885
FLOCK 4BE-23            
1 60490U 24149Y   26159.19050368  .00010878  00000+0  29835-3 0  9997
2 60490  97.3777 241.5556 0001895 314.6315  45.4775 15.37451289100812
FLOCK 4BE-15            
1 60491U 24149Z   26159.48590903  .00071714  00000+0  94319-3 0  9999
2 60491  97.3684 244.5519 0001977 257.2798 102.8237 15.58244698101077
FLOCK 4BE-17            
1 60492U 24149AA  26159.18691003  .00013615  00000+0  34844-3 0  9993
2 60492  97.3771 242.4883 0001607 289.4895  70.6178 15.39531885100870
NUSAT-50 (NANCY ROMAN)  
1 60493U 24149AB  26159.40335051  .00008056  00000+0  28252-3 0  9996
2 60493  97.3783 240.7216 0002642 203.6509 156.4610 15.29702887100780
FLOCK 4BE-22            
1 60494U 24149AC  26159.50117326  .00015975  00000+0  39039-3 0  9994
2 60494  97.3729 242.9820 0002109 305.0268  55.0780 15.40903584100965
FLOCK 4BE-34            
1 60495U 24149AD  26159.19362275  .00012970  00000+0  31753-3 0  9992
2 60495  97.3770 243.4877 0002220 324.6823  35.4276 15.40895406100941
TYCHE                   
1 60496U 24149AE  26159.47971056  .00004363  00000+0  17295-3 0  9999
2 60496  97.3751 237.4124 0000907 341.3950  18.7255 15.25916716100577
FLOCK 4BE-32            
1 60497U 24149AF  26159.49242073  .00016239  00000+0  38436-3 0  9997
2 60497  97.3715 243.3277 0002227 308.7693  51.3355 15.41866520100996
NUSAT-48 (HENRIETTA LE*)
1 60498U 24149AG  26159.19631464  .00008078  00000+0  28105-3 0  9995
2 60498  97.3908 240.7422 0002675 323.9514  36.1546 15.29963405100766
FLOCK 4BE-30            
1 60499U 24149AH  26159.50791520  .00126456  00000+0  19029-2 0  9996
2 60499  97.3782 244.7486 0003001 240.2159 119.8797 15.54384599100420
NUSAT-49 (KLARA DAN VO*)
1 60500U 24149AJ  26159.50140010  .00008768  00000+0  30632-3 0  9990
2 60500  97.3775 240.8501 0001770  21.1743 338.9570 15.29802899100801
FLOCK 4BE-11            
1 60501U 24149AK  26159.23221013  .00015503  00000+0  35715-3 0  9996
2 60501  97.3697 243.2869 0002375 309.2585  50.8451 15.42690724100978
YAM-7                   
1 60504U 24149AN  26159.17287744  .00006685  00000+0  22098-3 0  9996
2 60504  97.3778 239.4599 0002647 353.9284   6.1925 15.31695076100672
FLOCK 4BE-24            
1 60505U 24149AP  26159.47865421  .00017358  00000+0  39873-3 0  9992
2 60505  97.3710 243.7884 0002610 321.0700  39.0359 15.42751350101029
LUR-1                   
1 60506U 24149AQ  26159.48014853  .00006297  00000+0  21950-3 0  9996
2 60506  97.3735 238.3723 0003529 358.7880   1.3351 15.29993032100646
TANAGER-1               
1 60507U 24149AR  26159.22115381  .00002056  00000+0  45603-4 0  9998
2 60507  97.2735 253.4718 0004450 343.0866  17.0234 15.44916294101651
EAGLEEYE                
1 60508U 24149AS  26159.24771191  .00075335  00000+0  64228-3 0  9991
2 60508  97.3718 252.1026 0003293 261.6116  98.4773 15.69305709101537
FLOCK 4BE-29            
1 60509U 24149AT  26159.49561606  .00014938  00000+0  33104-3 0  9998
2 60509  97.3804 245.2392 0001743 351.4801   8.6417 15.43858488101076
TRANSPORTER-11 OBJECT AU
1 60510U 24149AU  26159.48152010  .00012955  00000+0  32684-3 0  9993
2 60510  97.3725 243.1344 0002610 338.4084  21.7051 15.39980584100972
FLOCK 4BE-2             
1 60511U 24149AV  26159.48532622  .00045472  00000+0  76016-3 0  9992
2 60511  97.3834 246.5382 0002394 293.1650  66.9350 15.51780346101150
FLOCK 4BE-13            
1 60512U 24149AW  26159.19936122  .00012505  00000+0  29872-3 0  9993
2 60512  97.3717 243.5194 0002765 307.4919  52.6076 15.41647861100988
