OBJECT_NAME,OBJECT_ID,EPOCH,MEAN_MOTION,ECCENTRICITY,INCLINATION,RA_OF_ASC_NODE,ARG_OF_PERICENTER,MEAN_ANOMALY,EPHEMERIS_TYPE,CLASSIFICATION_TYPE,NORAD_CAT_ID,ELEMENT_SET_NO,REV_AT_EPOCH,BSTAR,MEAN_MOTION_DOT,MEAN_MOTION_DDOT
TOMORROW-S1,2024-149M,2026-06-08T04:36:17.985312,15.32591542,.0000995,97.3744,239.6936,279.9267,80.1863,0,U,60479,999,10071,.20898E-3,.6498E-4,0
FLOCK 4BE-18,2024-149N,2026-06-08T04:31:58.292832,15.41565842,.0002368,97.3725,242.8268,282.9577,77.1406,0,U,60480,999,10092,.34726E-3,.14514E-3,0
FLOCK 4BE-7,2024-149P,2026-06-08T04:29:29.974272,15.39951792,.000151,97.3752,242.1821,289.3249,70.7833,0,U,60481,999,10086,.45496E-3,.1806E-3,0
TOMORROW-S2,2024-149T,2026-06-08T05:20:29.105376,15.32619190,.0001514,97.3813,240.2044,329.9872,30.1283,0,U,60485,999,10071,.22861E-3,.7123E-4,0
FLOCK 4BE-36,2024-149U,2026-06-08T11:45:18.440928,15.42455990,.0002172,97.3739,243.8159,303.7990,56.3051,0,U,60486,999,10101,.33248E-3,.14311E-3,0
FLOCK 4BE-25,2024-149V,2026-06-08T04:17:05.412768,15.38604408,.0000715,97.3794,242.2699,292.7160,67.4010,0,U,60487,999,10085,.3169E-3,.12002E-3,0
FLOCK 4BE-31,2024-149W,2026-06-08T04:54:00.555840,15.43744550,.0001171,97.3797,244.3600,311.7537,48.3611,0,U,60488,999,10099,.39804E-3,.17916E-3,0
FLOCK 4BE-20,2024-149X,2026-06-08T12:40:04.755648,15.37836802,.0002214,97.3692,241.5223,299.9607,60.1418,0,U,60489,999,10088,.36769E-3,.13599E-3,0
FLOCK 4BE-23,2024-149Y,2026-06-08T04:34:19.517952,15.37451289,.0001895,97.3777,241.5556,314.6315,45.4775,0,U,60490,999,10081,.29835E-3,.10878E-3,0
FLOCK 4BE-15,2024-149Z,2026-06-08T11:39:42.540192,15.58244698,.0001977,97.3684,244.5519,257.2798,102.8237,0,U,60491,999,10107,.94319E-3,.71714E-3,0
FLOCK 4BE-17,2024-149AA,2026-06-08T04:29:09.026592,15.39531885,.0001607,97.3771,242.4883,289.4895,70.6178,0,U,60492,999,10087,.34844E-3,.13615E-3,0
NUSAT-50 (NANCY ROMAN),2024-149AB,2026-06-08T09:40:49.484064,15.29702887,.0002642,97.3783,240.7216,203.6509,156.4610,0,U,60493,999,10078,.28252E-3,.8056E-4,0
FLOCK 4BE-22,2024-149AC,2026-06-08T12:01:41.369664,15.40903584,.0002109,97.3729,242.9820,305.0268,55.0780,0,U,60494,999,10096,.39039E-3,.15975E-3,0
FLOCK 4BE-34,2024-149AD,2026-06-08T04:38:49.005600,15.40895406,.000222,97.3770,243.4877,324.6823,35.4276,0,U,60495,999,10094,.31753E-3,.1297E-3,0
TYCHE,2024-149AE,2026-06-08T11:30:46.992384,15.25916716,.0000907,97.3751,237.4124,341.3950,18.7255,0,U,60496,999,10057,.17295E-3,.4363E-4,0
FLOCK 4BE-32,2024-149AF,2026-06-08T11:49:05.151072,15.41866520,.0002227,97.3715,243.3277,308.7693,51.3355,0,U,60497,999,10099,.38436E-3,.16239E-3,0
NUSAT-48 (HENRIETTA LEAVITT),2024-149AG,2026-06-08T04:42:41.584896,15.29963405,.0002675,97.3908,240.7422,323.9514,36.1546,0,U,60498,999,10076,.28105E-3,.8078E-4,0
FLOCK 4BE-30,2024-149AH,2026-06-08T12:11:23.873280,15.54384599,.0003001,97.3782,244.7486,240.2159,119.8797,0,U,60499,999,10042,.19029E-2,.126456E-2,0
NUSAT-49 (KLARA DAN VON NEUMANN),2024-149AJ,2026-06-08T12:02:00.968640,15.29802899,.000177,97.3775,240.8501,21.1743,338.9570,0,U,60500,999,10080,.30632E-3,.8768E-4,0
FLOCK 4BE-11,2024-149AK,2026-06-08T05:34:22.955232,15.42690724,.0002375,97.3697,243.2869,309.2585,50.8451,0,U,60501,999,10097,.35715E-3,.15503E-3,0
YAM-7,2024-149AN,2026-06-08T04:08:56.610816,15.31695076,.0002647,97.3778,239.4599,353.9284,6.1925,0,U,60504,999,10067,.22098E-3,.6685E-4,0
FLOCK 4BE-24,2024-149AP,2026-06-08T11:29:15.723744,15.42751350,.000261,97.3710,243.7884,321.0700,39.0359,0,U,60505,999,10102,.39873E-3,.17358E-3,0
LUR-1,2024-149AQ,2026-06-08T11:31:24.832992,15.29993032,.0003529,97.3735,238.3723,358.7880,1.3351,0,U,60506,999,10064,.2195E-3,.6297E-4,0
TANAGER-1,2024-149AR,2026-06-08T05:18:27.689184,15.44916294,.000445,97.2735,253.4718,343.0866,17.0234,0,U,60507,999,10165,.45603E-4,.2056E-4,0
EAGLEEYE,2024-149AS,2026-06-08T05:56:42.309024,15.69305709,.0003293,97.3718,252.1026,261.6116,98.4773,0,U,60508,999,10153,.64228E-3,.75335E-3,0
FLOCK 4BE-29,2024-149AT,2026-06-08T11:53:41.227584,15.43858488,.0001743,97.3804,245.2392,351.4801,8.6417,0,U,60509,999,10107,.33104E-3,.14938E-3,0
TRANSPORTER-11 OBJECT AU,2024-149AU,2026-06-08T11:33:23.336640,15.39980584,.000261,97.3725,243.1344,338.4084,21.7051,0,U,60510,999,10097,.32684E-3,.12955E-3,0
FLOCK 4BE-2,2024-149AV,2026-06-08T11:38:52.185408,15.51780346,.0002394,97.3834,246.5382,293.1650,66.9350,0,U,60511,999,10115,.76016E-3,.45472E-3,0
FLOCK 4BE-13,2024-149AW,2026-06-08T04:47:04.809408,15.41647861,.0002765,97.3717,243.5194,307.4919,52.6076,0,U,60512,999,10098,.29872E-3,.12505E-3,0
